{"type": "FeatureCollection", "features": [ {"type": "Feature", "properties": {"norad_id": 30878, "name": "FENGYUN 1C DEB", "group": "fengyun-1c-debris", "lat": -48.64364451808012, "lon": -0.808113068106463, "alt_km": 832.3085778530458, "timestamp": "2025-12-13T16:48:32.989585+00:00", "meta": {"OBJECT_NAME": "FENGYUN 1C DEB", "OBJECT_ID": "1999-025AXQ", "EPOCH": "2025-12-12T07:06:09.037152", "MEAN_MOTION": 14.11884532, "ECCENTRICITY": 0.00400443, "INCLINATION": 98.7207, "RA_OF_ASC_NODE": 347.7847, "ARG_OF_PERICENTER": 295.7698, "MEAN_ANOMALY": 80.2461, "EPHEMERIS_TYPE": 0, "CLASSIFICATION_TYPE": "U", "NORAD_CAT_ID": 30878, "ELEMENT_SET_NO": 999, "REV_AT_EPOCH": 96361, "BSTAR": 0.00089049967, "MEAN_MOTION_DOT": 1.596e-05, "MEAN_MOTION_DDOT": 0}, "tle": {"line1": "1 30878U 99025AXQ 25346.29593793  .00001596  00000+0  89050-3 0  9993", "line2": "2 30878  98.7207 347.7847 0040044 295.7698  80.2461 14.11884532963612"}}, "geometry": {"type": "Point", "coordinates": [-0.808113068106463, -48.64364451808012]}}, {"type": "Feature", "properties": {"norad_id": 30879, "name": "FENGYUN 1C DEB", "group": "fengyun-1c-debris", "lat": 54.164309117087626, "lon": 37.6813814239793, "alt_km": 789.933585269534, "timestamp": "2025-12-13T16:48:32.989595+00:00", "meta": {"OBJECT_NAME": "FENGYUN 1C DEB", "OBJECT_ID": "1999-025AXR", "EPOCH": "2025-12-12T07:29:48.664320", "MEAN_MOTION": 14.67298603, "ECCENTRICITY": 0.02025735, "INCLINATION": 99.3522, "RA_OF_ASC_NODE": 202.9065, "ARG_OF_PERICENTER": 281.3224, "MEAN_ANOMALY": 76.5278, "EPHEMERIS_TYPE": 0, "CLASSIFICATION_TYPE": "U", "NORAD_CAT_ID": 30879, "ELEMENT_SET_NO": 999, "REV_AT_EPOCH": 61933, "BSTAR": 0.0055467824, "MEAN_MOTION_DOT": 0.00042808, "MEAN_MOTION_DDOT": 0}, "tle": {"line1": "1 30879U 99025AXR 25346.31236880  .00042808  00000+0  55468-2 0  9994", "line2": "2 30879  99.3522 202.9065 0202573 281.3224  76.5278 14.67298603619337"}}, "geometry": {"type": "Point", "coordinates": [37.6813814239793, 54.164309117087626]}}, {"type": "Feature", "properties": {"norad_id": 30880, "name": "FENGYUN 1C DEB", "group": "fengyun-1c-debris", "lat": 29.026822556464737, "lon": -115.52688221896113, "alt_km": 793.8106647208824, "timestamp": "2025-12-13T16:48:32.989605+00:00", "meta": {"OBJECT_NAME": "FENGYUN 1C DEB", "OBJECT_ID": "1999-025AXS", "EPOCH": "2025-12-12T21:34:43.043520", "MEAN_MOTION": 14.25601224, "ECCENTRICITY": 0.00223282, "INCLINATION": 98.7948, "RA_OF_ASC_NODE": 58.7413, "ARG_OF_PERICENTER": 107.0208, "MEAN_ANOMALY": 253.342, "EPHEMERIS_TYPE": 0, "CLASSIFICATION_TYPE": "U", "NORAD_CAT_ID": 30880, "ELEMENT_SET_NO": 999, "REV_AT_EPOCH": 96716, "BSTAR": 0.0020430902, "MEAN_MOTION_DOT": 4.808e-05, "MEAN_MOTION_DDOT": 0}, "tle": {"line1": "1 30880U 99025AXS 25346.89910930  .00004808  00000+0  20431-2 0  9994", "line2": "2 30880  98.7948  58.7413 0022328 107.0208 253.3420 14.25601224967164"}}, "geometry": {"type": "Point", "coordinates": [-115.52688221896113, 29.026822556464737]}}, {"type": "Feature", "properties": {"norad_id": 30882, "name": "FENGYUN 1C DEB", "group": "fengyun-1c-debris", "lat": -31.799226823912175, "lon": -141.93139839788714, "alt_km": 720.9511015649587, "timestamp": "2025-12-13T16:48:32.989615+00:00", "meta": {"OBJECT_NAME": "FENGYUN 1C DEB", "OBJECT_ID": "1999-025AXU", "EPOCH": "2025-12-10T21:38:12.350976", "MEAN_MOTION": 14.86642333, "ECCENTRICITY": 0.0153584, "INCLINATION": 97.9438, "RA_OF_ASC_NODE": 40.2365, "ARG_OF_PERICENTER": 46.8265, "MEAN_ANOMALY": 314.5667, "EPHEMERIS_TYPE": 0, "CLASSIFICATION_TYPE": "U", "NORAD_CAT_ID": 30882, "ELEMENT_SET_NO": 999, "REV_AT_EPOCH": 99627, "BSTAR": 0.0014141, "MEAN_MOTION_DOT": 0.00015542, "MEAN_MOTION_DDOT": 0}, "tle": {"line1": "1 30882U 99025AXU 25344.90153184  .00015542  00000+0  14141-2 0  9994", "line2": "2 30882  97.9438  40.2365 0153584  46.8265 314.5667 14.86642333996275"}}, "geometry": {"type": "Point", "coordinates": [-141.93139839788714, -31.799226823912175]}}, {"type": "Feature", "properties": {"norad_id": 30883, "name": "FENGYUN 1C DEB", "group": "fengyun-1c-debris", "lat": -17.099326473550676, "lon": 27.320556710435586, "alt_km": 901.9151677172367, "timestamp": "2025-12-13T16:48:32.989625+00:00", "meta": {"OBJECT_NAME": "FENGYUN 1C DEB", "OBJECT_ID": "1999-025AXV", "EPOCH": "2025-12-12T08:44:34.880640", "MEAN_MOTION": 14.14549127, "ECCENTRICITY": 0.01118261, "INCLINATION": 98.3621, "RA_OF_ASC_NODE": 23.4755, "ARG_OF_PERICENTER": 214.9842, "MEAN_ANOMALY": 166.8592, "EPHEMERIS_TYPE": 0, "CLASSIFICATION_TYPE": "U", "NORAD_CAT_ID": 30883, "ELEMENT_SET_NO": 999, "REV_AT_EPOCH": 96912, "BSTAR": 0.00029667291, "MEAN_MOTION_DOT": 5.64e-06, "MEAN_MOTION_DDOT": 0}, "tle": {"line1": "1 30883U 99025AXV 25346.36429260  .00000564  00000+0  29667-3 0  9996", "line2": "2 30883  98.3621  23.4755 0111826 214.9842 166.8592 14.14549127969120"}}, "geometry": {"type": "Point", "coordinates": [27.320556710435586, -17.099326473550676]}}, {"type": "Feature", "properties": {"norad_id": 30884, "name": "FENGYUN 1C DEB", "group": "fengyun-1c-debris", "lat": 39.2441953346528, "lon": 168.97155027766414, "alt_km": 692.6430089771884, "timestamp": "2025-12-13T16:48:32.989635+00:00", "meta": {"OBJECT_NAME": "FENGYUN 1C DEB", "OBJECT_ID": "1999-025AXW", "EPOCH": "2025-12-12T17:21:30.882240", "MEAN_MOTION": 14.73481254, "ECCENTRICITY": 0.00668521, "INCLINATION": 98.8912, "RA_OF_ASC_NODE": 340.5549, "ARG_OF_PERICENTER": 335.9237, "MEAN_ANOMALY": 23.8847, "EPHEMERIS_TYPE": 0, "CLASSIFICATION_TYPE": "U", "NORAD_CAT_ID": 30884, "ELEMENT_SET_NO": 999, "REV_AT_EPOCH": 98661, "BSTAR": 0.0030704135, "MEAN_MOTION_DOT": 0.00020657, "MEAN_MOTION_DDOT": 0}, "tle": {"line1": "1 30884U 99025AXW 25346.72327410  .00020657  00000+0  30704-2 0  9999", "line2": "2 30884  98.8912 340.5549 0066852 335.9237  23.8847 14.73481254986612"}}, "geometry": {"type": "Point", "coordinates": [168.97155027766414, 39.2441953346528]}}, {"type": "Feature", "properties": {"norad_id": 30885, "name": "FENGYUN 1C DEB", "group": "fengyun-1c-debris", "lat": 77.02391936480682, "lon": 51.916675044338675, "alt_km": 737.3357413732911, "timestamp": "2025-12-13T16:48:32.989645+00:00", "meta": {"OBJECT_NAME": "FENGYUN 1C DEB", "OBJECT_ID": "1999-025AXX", "EPOCH": "2025-12-12T08:01:59.425248", "MEAN_MOTION": 14.49418867, "ECCENTRICITY": 0.005374, "INCLINATION": 99.027, "RA_OF_ASC_NODE": 186.8341, "ARG_OF_PERICENTER": 220.4956, "MEAN_ANOMALY": 317.4515, "EPHEMERIS_TYPE": 0, "CLASSIFICATION_TYPE": "U", "NORAD_CAT_ID": 30885, "ELEMENT_SET_NO": 999, "REV_AT_EPOCH": 96971, "BSTAR": 0.0040642169, "MEAN_MOTION_DOT": 0.0001582, "MEAN_MOTION_DDOT": 0}, "tle": {"line1": "1 30885U 99025AXX 25346.33471557  .00015820  00000+0  40642-2 0  9997", "line2": "2 30885  99.0270 186.8341 0053740 220.4956 317.4515 14.49418867969711"}}, "geometry": {"type": "Point", "coordinates": [51.916675044338675, 77.02391936480682]}}, {"type": "Feature", "properties": {"norad_id": 30886, "name": "FENGYUN 1C DEB", "group": "fengyun-1c-debris", "lat": -76.26501262343264, "lon": 19.129792555242865, "alt_km": 840.611225711571, "timestamp": "2025-12-13T16:48:32.989655+00:00", "meta": {"OBJECT_NAME": "FENGYUN 1C DEB", "OBJECT_ID": "1999-025AXY", "EPOCH": "2025-12-12T15:57:46.326528", "MEAN_MOTION": 14.22783115, "ECCENTRICITY": 0.00363654, "INCLINATION": 99.2099, "RA_OF_ASC_NODE": 239.6381, "ARG_OF_PERICENTER": 34.5651, "MEAN_ANOMALY": 325.7879, "EPHEMERIS_TYPE": 0, "CLASSIFICATION_TYPE": "U", "NORAD_CAT_ID": 30886, "ELEMENT_SET_NO": 999, "REV_AT_EPOCH": 96395, "BSTAR": 0.0026696157, "MEAN_MOTION_DOT": 5.985e-05, "MEAN_MOTION_DDOT": 0}, "tle": {"line1": "1 30886U 99025AXY 25346.66511952  .00005985  00000+0  26696-2 0  9992", "line2": "2 30886  99.2099 239.6381 0036365  34.5651 325.7879 14.22783115963951"}}, "geometry": {"type": "Point", "coordinates": [19.129792555242865, -76.26501262343264]}}, {"type": "Feature", "properties": {"norad_id": 30887, "name": "FENGYUN 1C DEB", "group": "fengyun-1c-debris", "lat": -54.31405822788126, "lon": 55.382377512068636, "alt_km": 572.5610194832616, "timestamp": "2025-12-13T16:48:32.989665+00:00", "meta": {"OBJECT_NAME": "FENGYUN 1C DEB", "OBJECT_ID": "1999-025AXZ", "EPOCH": "2025-12-12T14:27:44.950176", "MEAN_MOTION": 14.44816862, "ECCENTRICITY": 0.02636921, "INCLINATION": 98.3693, "RA_OF_ASC_NODE": 42.4715, "ARG_OF_PERICENTER": 288.2268, "MEAN_ANOMALY": 69.0389, "EPHEMERIS_TYPE": 0, "CLASSIFICATION_TYPE": "U", "NORAD_CAT_ID": 30887, "ELEMENT_SET_NO": 999, "REV_AT_EPOCH": 98126, "BSTAR": 0.00098184309, "MEAN_MOTION_DOT": 5.183e-05, "MEAN_MOTION_DDOT": 0}, "tle": {"line1": "1 30887U 99025AXZ 25346.60260359  .00005183  00000+0  98184-3 0  9991", "line2": "2 30887  98.3693  42.4715 0263692 288.2268  69.0389 14.44816862981268"}}, "geometry": {"type": "Point", "coordinates": [55.382377512068636, -54.31405822788126]}}, {"type": "Feature", "properties": {"norad_id": 30888, "name": "FENGYUN 1C DEB", "group": "fengyun-1c-debris", "lat": -66.12438192896253, "lon": -11.1022628346877, "alt_km": 640.0387116622405, "timestamp": "2025-12-13T16:48:32.989675+00:00", "meta": {"OBJECT_NAME": "FENGYUN 1C DEB", "OBJECT_ID": "1999-025AYA", "EPOCH": "2025-12-12T21:49:41.309760", "MEAN_MOTION": 14.93900032, "ECCENTRICITY": 0.0083615, "INCLINATION": 99.4853, "RA_OF_ASC_NODE": 325.7514, "ARG_OF_PERICENTER": 150.2165, "MEAN_ANOMALY": 210.3848, "EPHEMERIS_TYPE": 0, "CLASSIFICATION_TYPE": "U", "NORAD_CAT_ID": 30888, "ELEMENT_SET_NO": 999, "REV_AT_EPOCH": 99928, "BSTAR": 0.001494985, "MEAN_MOTION_DOT": 0.00016983, "MEAN_MOTION_DDOT": 0}, "tle": {"line1": "1 30888U 99025AYA 25346.90950590  .00016983  00000+0  14950-2 0  9996", "line2": "2 30888  99.4853 325.7514 0083615 150.2165 210.3848 14.93900032999281"}}, "geometry": {"type": "Point", "coordinates": [-11.1022628346877, -66.12438192896253]}}]}